STARLINK-30997          
1 58482U 23186K   26068.01059115  .00023746  00000+0  89142-3 0  9999
2 58482  42.9998  67.3412 0000499 244.0827 115.9973 15.26763988125796
FLOCK 4G-3              
1 62639U 25009AG  26068.80174065  .00011494  00000+0  43389-3 0  9993
2 62639  97.4062 151.4068 0001320 293.2042  66.9058 15.27179310 63727
